{
  "type": "FeatureCollection",
  "features": [
    {
      "type": "Feature",
      "properties": {
        "norad_id": 40069,
        "name": "METEOR-M 2",
        "group": "weather",
        "lat": -78.58987578397578,
        "lon": 101.04248245016565,
        "alt_km": 826.5419238579252,
        "timestamp": "2025-12-17T09:00:16.787925+00:00",
        "meta_object_name": "METEOR-M 2",
        "meta_object_id": "2014-037A",
        "meta_epoch": "2025-12-16T23:19:37.285248",
        "meta_mean_motion": 14.21388653,
        "meta_eccentricity": 0.00051684,
        "meta_inclination": 98.4899,
        "meta_ra_of_asc_node": 328.3945,
        "meta_arg_of_pericenter": 196.3046,
        "meta_mean_anomaly": 163.7966,
        "meta_ephemeris_type": 0,
        "meta_classification_type": "U",
        "meta_norad_cat_id": 40069,
        "meta_element_set_no": 999,
        "meta_rev_at_epoch": 59343,
        "meta_bstar": 8.5827475e-05,
        "meta_mean_motion_dot": 1.46e-06,
        "meta_mean_motion_ddot": 0,
        "tle_line1": "1 40069U 14037A   25350.97195932  .00000146  00000+0  85827-4 0  9998",
        "tle_line2": "2 40069  98.4899 328.3945 0005168 196.3046 163.7966 14.21388653593434"
      },
      "geometry": {
        "type": "Point",
        "coordinates": [
          101.04248245016565,
          -78.58987578397578
        ]
      }
    },
    {
      "type": "Feature",
      "properties": {
        "norad_id": 40267,
        "name": "HIMAWARI-8",
        "group": "weather",
        "lat": -0.0022492154374416247,
        "lon": 1.9895931701185003,
        "alt_km": 35784.90503847922,
        "timestamp": "2025-12-17T09:00:16.787937+00:00",
        "meta_object_name": "HIMAWARI-8",
        "meta_object_id": "2014-060A",
        "meta_epoch": "2025-12-16T16:44:38.561856",
        "meta_mean_motion": 1.00272573,
        "meta_eccentricity": 8.727e-05,
        "meta_inclination": 0.0192,
        "meta_ra_of_asc_node": 161.0568,
        "meta_arg_of_pericenter": 127.3774,
        "meta_mean_anomaly": 188.979,
        "meta_ephemeris_type": 0,
        "meta_classification_type": "U",
        "meta_norad_cat_id": 40267,
        "meta_element_set_no": 999,
        "meta_rev_at_epoch": 4093,
        "meta_bstar": 0,
        "meta_mean_motion_dot": -2.51e-06,
        "meta_mean_motion_ddot": 0,
        "tle_line1": "1 40267U 14060A   25350.69766854 -.00000251  00000+0  00000+0 0  9993",
        "tle_line2": "2 40267   0.0192 161.0568 0000872 127.3774 188.9790  1.00272573 40933"
      },
      "geometry": {
        "type": "Point",
        "coordinates": [
          1.9895931701185003,
          -0.0022492154374416247
        ]
      }
    },
    {
      "type": "Feature",
      "properties": {
        "norad_id": 40367,
        "name": "FENGYUN 2G",
        "group": "weather",
        "lat": -4.7327180615613145,
        "lon": -39.35867765568079,
        "alt_km": 35780.132448544515,
        "timestamp": "2025-12-17T09:00:16.787949+00:00",
        "meta_object_name": "FENGYUN 2G",
        "meta_object_id": "2014-090A",
        "meta_epoch": "2025-12-16T18:57:58.838976",
        "meta_mean_motion": 1.00262837,
        "meta_eccentricity": 0.00028831,
        "meta_inclination": 5.1785,
        "meta_ra_of_asc_node": 75.0518,
        "meta_arg_of_pericenter": 204.4015,
        "meta_mean_anomaly": 190.125,
        "meta_ephemeris_type": 0,
        "meta_classification_type": "U",
        "meta_norad_cat_id": 40367,
        "meta_element_set_no": 999,
        "meta_rev_at_epoch": 4017,
        "meta_bstar": 0,
        "meta_mean_motion_dot": -2.79e-06,
        "meta_mean_motion_ddot": 0,
        "tle_line1": "1 40367U 14090A   25350.79026434 -.00000279  00000+0  00000+0 0  9991",
        "tle_line2": "2 40367   5.1785  75.0518 0002883 204.4015 190.1250  1.00262837 40170"
      },
      "geometry": {
        "type": "Point",
        "coordinates": [
          -39.35867765568079,
          -4.7327180615613145
        ]
      }
    },
    {
      "type": "Feature",
      "properties": {
        "norad_id": 40732,
        "name": "METEOSAT-11 (MSG-4)",
        "group": "weather",
        "lat": 0.9808245825308095,
        "lon": -129.42894768132933,
        "alt_km": 35783.36493155205,
        "timestamp": "2025-12-17T09:00:16.787962+00:00",
        "meta_object_name": "METEOSAT-11 (MSG-4)",
        "meta_object_id": "2015-034A",
        "meta_epoch": "2025-12-16T18:32:16.300896",
        "meta_mean_motion": 1.00268751,
        "meta_eccentricity": 8.953e-05,
        "meta_inclination": 2.7459,
        "meta_ra_of_asc_node": 71.991,
        "meta_arg_of_pericenter": 132.5551,
        "meta_mean_anomaly": 168.4157,
        "meta_ephemeris_type": 0,
        "meta_classification_type": "U",
        "meta_norad_cat_id": 40732,
        "meta_element_set_no": 999,
        "meta_rev_at_epoch": 538,
        "meta_bstar": 0,
        "meta_mean_motion_dot": 8.3e-07,
        "meta_mean_motion_ddot": 0,
        "tle_line1": "1 40732U 15034A   25350.77241089  .00000083  00000+0  00000+0 0  9991",
        "tle_line2": "2 40732   2.7459  71.9910 0000895 132.5551 168.4157  1.00268751  5384"
      },
      "geometry": {
        "type": "Point",
        "coordinates": [
          -129.42894768132933,
          0.9808245825308095
        ]
      }
    },
    {
      "type": "Feature",
      "properties": {
        "norad_id": 41105,
        "name": "ELEKTRO-L 2",
        "group": "weather",
        "lat": 4.467989894304507,
        "lon": -153.04068840131325,
        "alt_km": 35781.303708859385,
        "timestamp": "2025-12-17T09:00:16.787975+00:00",
        "meta_object_name": "ELEKTRO-L 2",
        "meta_object_id": "2015-074A",
        "meta_epoch": "2025-12-16T01:18:12.753792",
        "meta_mean_motion": 1.00272542,
        "meta_eccentricity": 0.00037924,
        "meta_inclination": 6.234,
        "meta_ra_of_asc_node": 72.7892,
        "meta_arg_of_pericenter": 209.7128,
        "meta_mean_anomaly": 167.5089,
        "meta_ephemeris_type": 0,
        "meta_classification_type": "U",
        "meta_norad_cat_id": 41105,
        "meta_element_set_no": 999,
        "meta_rev_at_epoch": 3667,
        "meta_bstar": 0,
        "meta_mean_motion_dot": -9.9e-07,
        "meta_mean_motion_ddot": 0,
        "tle_line1": "1 41105U 15074A   25350.05431428 -.00000099  00000+0  00000+0 0  9997",
        "tle_line2": "2 41105   6.2340  72.7892 0003792 209.7128 167.5089  1.00272542 36674"
      },
      "geometry": {
        "type": "Point",
        "coordinates": [
          -153.04068840131325,
          4.467989894304507
        ]
      }
    },
    {
      "type": "Feature",
      "properties": {
        "norad_id": 41752,
        "name": "INSAT-3DR",
        "group": "weather",
        "lat": -0.06746843348992379,
        "lon": -64.6324394359363,
        "alt_km": 35731.344783599445,
        "timestamp": "2025-12-17T09:00:16.787987+00:00",
        "meta_object_name": "INSAT-3DR",
        "meta_object_id": "2016-054A",
        "meta_epoch": "2025-12-16T17:08:01.866336",
        "meta_mean_motion": 1.00271563,
        "meta_eccentricity": 0.00141801,
        "meta_inclination": 0.1018,
        "meta_ra_of_asc_node": 86.686,
        "meta_arg_of_pericenter": 184.5714,
        "meta_mean_anomaly": 145.3416,
        "meta_ephemeris_type": 0,
        "meta_classification_type": "U",
        "meta_norad_cat_id": 41752,
        "meta_element_set_no": 999,
        "meta_rev_at_epoch": 3398,
        "meta_bstar": 0,
        "meta_mean_motion_dot": -5.3e-07,
        "meta_mean_motion_ddot": 0,
        "tle_line1": "1 41752U 16054A   25350.71391049 -.00000053  00000+0  00000+0 0  9991",
        "tle_line2": "2 41752   0.1018  86.6860 0014180 184.5714 145.3416  1.00271563 33981"
      },
      "geometry": {
        "type": "Point",
        "coordinates": [
          -64.6324394359363,
          -0.06746843348992379
        ]
      }
    },
    {
      "type": "Feature",
      "properties": {
        "norad_id": 41836,
        "name": "HIMAWARI-9",
        "group": "weather",
        "lat": 0.020802695939470425,
        "lon": 2.071685718060289,
        "alt_km": 35785.05133520653,
        "timestamp": "2025-12-17T09:00:16.788000+00:00",
        "meta_object_name": "HIMAWARI-9",
        "meta_object_id": "2016-064A",
        "meta_epoch": "2025-12-16T14:01:33.494016",
        "meta_mean_motion": 1.00269191,
        "meta_eccentricity": 9.983e-05,
        "meta_inclination": 0.0171,
        "meta_ra_of_asc_node": 275.3759,
        "meta_arg_of_pericenter": 22.8561,
        "meta_mean_anomaly": 138.3893,
        "meta_ephemeris_type": 0,
        "meta_classification_type": "U",
        "meta_norad_cat_id": 41836,
        "meta_element_set_no": 999,
        "meta_rev_at_epoch": 3337,
        "meta_bstar": 0,
        "meta_mean_motion_dot": -2.51e-06,
        "meta_mean_motion_ddot": 0,
        "tle_line1": "1 41836U 16064A   25350.58441544 -.00000251  00000+0  00000+0 0  9996",
        "tle_line2": "2 41836   0.0171 275.3759 0000998  22.8561 138.3893  1.00269191 33371"
      },
      "geometry": {
        "type": "Point",
        "coordinates": [
          2.071685718060289,
          0.020802695939470425
        ]
      }
    }
  ]
}